{"type": "FeatureCollection", "features": [ {"type": "Feature", "properties": {"norad_id": 33153, "name": "INTELSAT 25 (IS-25)", "group": "intelsat", "lat": -0.6654478202105985, "lon": -80.9033535011584, "alt_km": 35766.566845885456, "timestamp": "2025-12-19T14:48:35.912118+00:00", "meta": {"OBJECT_NAME": "INTELSAT 25 (IS-25)", "OBJECT_ID": "2008-034A", "EPOCH": "2025-12-19T06:15:59.484960", "MEAN_MOTION": 1.00270447, "ECCENTRICITY": 0.00047953, "INCLINATION": 2.2436, "RA_OF_ASC_NODE": 82.5806, "ARG_OF_PERICENTER": 186.3988, "MEAN_ANOMALY": 241.6253, "EPHEMERIS_TYPE": 0, "CLASSIFICATION_TYPE": "U", "NORAD_CAT_ID": 33153, "ELEMENT_SET_NO": 999, "REV_AT_EPOCH": 6389, "BSTAR": 0, "MEAN_MOTION_DOT": -2.01e-06, "MEAN_MOTION_DDOT": 0}, "tle": {"line1": "1 33153U 08034A   25353.26110515 -.00000201  00000+0  00000+0 0  9991", "line2": "2 33153   2.2436  82.5806 0004795 186.3988 241.6253  1.00270447 63895"}}, "geometry": {"type": "Point", "coordinates": [-80.9033535011584, -0.6654478202105985]}}, {"type": "Feature", "properties": {"norad_id": 33376, "name": "GALAXY 19 (G-19)", "group": "intelsat", "lat": -0.027956447721857732, "lon": -146.4220848864626, "alt_km": 35780.55689188407, "timestamp": "2025-12-19T14:48:35.912130+00:00", "meta": {"OBJECT_NAME": "GALAXY 19 (G-19)", "OBJECT_ID": "2008-045A", "EPOCH": "2025-12-19T06:01:51.136320", "MEAN_MOTION": 1.0027165, "ECCENTRICITY": 0.000251, "INCLINATION": 0.0168, "RA_OF_ASC_NODE": 289.9778, "ARG_OF_PERICENTER": 342.0369, "MEAN_ANOMALY": 169.5516, "EPHEMERIS_TYPE": 0, "CLASSIFICATION_TYPE": "U", "NORAD_CAT_ID": 33376, "ELEMENT_SET_NO": 999, "REV_AT_EPOCH": 6310, "BSTAR": 0, "MEAN_MOTION_DOT": -1.14e-06, "MEAN_MOTION_DDOT": 0}, "tle": {"line1": "1 33376U 08045A   25353.25128630 -.00000114  00000+0  00000+0 0  9999", "line2": "2 33376   0.0168 289.9778 0002510 342.0369 169.5516  1.00271650 63109"}}, "geometry": {"type": "Point", "coordinates": [-146.4220848864626, -0.027956447721857732]}}, {"type": "Feature", "properties": {"norad_id": 35493, "name": "FM-5", "group": "intelsat", "lat": -0.03366178384494514, "lon": -135.53023245619687, "alt_km": 35785.023231149644, "timestamp": "2025-12-19T14:48:35.912141+00:00", "meta": {"OBJECT_NAME": "FM-5", "OBJECT_ID": "2009-034A", "EPOCH": "2025-12-19T06:08:38.539968", "MEAN_MOTION": 1.00271831, "ECCENTRICITY": 9.133e-05, "INCLINATION": 0.0183, "RA_OF_ASC_NODE": 297.901, "ARG_OF_PERICENTER": 213.0729, "MEAN_ANOMALY": 303.1516, "EPHEMERIS_TYPE": 0, "CLASSIFICATION_TYPE": "U", "NORAD_CAT_ID": 35493, "ELEMENT_SET_NO": 999, "REV_AT_EPOCH": 4484, "BSTAR": 0, "MEAN_MOTION_DOT": -1.76e-06, "MEAN_MOTION_DDOT": 0}, "tle": {"line1": "1 35493U 09034A   25353.25600162 -.00000176  00000+0  00000+0 0  9993", "line2": "2 35493   0.0183 297.9010 0000913 213.0729 303.1516  1.00271831 44845"}}, "geometry": {"type": "Point", "coordinates": [-135.53023245619687, -0.03366178384494514]}}, {"type": "Feature", "properties": {"norad_id": 36097, "name": "INTELSAT 14 (IS-14)", "group": "intelsat", "lat": -0.0405730667440803, "lon": -94.39292661293251, "alt_km": 35776.16637572123, "timestamp": "2025-12-19T14:48:35.912153+00:00", "meta": {"OBJECT_NAME": "INTELSAT 14 (IS-14)", "OBJECT_ID": "2009-064A", "EPOCH": "2025-12-19T06:12:07.354944", "MEAN_MOTION": 1.00271449, "ECCENTRICITY": 0.00024374, "INCLINATION": 0.0132, "RA_OF_ASC_NODE": 348.8616, "ARG_OF_PERICENTER": 289.9965, "MEAN_ANOMALY": 217.2941, "EPHEMERIS_TYPE": 0, "CLASSIFICATION_TYPE": "U", "NORAD_CAT_ID": 36097, "ELEMENT_SET_NO": 999, "REV_AT_EPOCH": 5880, "BSTAR": 0, "MEAN_MOTION_DOT": -2.49e-06, "MEAN_MOTION_DDOT": 0}, "tle": {"line1": "1 36097U 09064A   25353.25841846 -.00000249  00000+0  00000+0 0  9994", "line2": "2 36097   0.0132 348.8616 0002437 289.9965 217.2941  1.00271449 58808"}}, "geometry": {"type": "Point", "coordinates": [-94.39292661293251, -0.0405730667440803]}}, {"type": "Feature", "properties": {"norad_id": 36106, "name": "INTELSAT 15 (IS-15)", "group": "intelsat", "lat": 0.029670594823607333, "lon": 35.78414268616152, "alt_km": 35790.21559422576, "timestamp": "2025-12-19T14:48:35.912165+00:00", "meta": {"OBJECT_NAME": "INTELSAT 15 (IS-15)", "OBJECT_ID": "2009-067A", "EPOCH": "2025-12-18T22:15:40.597344", "MEAN_MOTION": 1.00272402, "ECCENTRICITY": 0.0002124, "INCLINATION": 0.0179, "RA_OF_ASC_NODE": 357.1967, "ARG_OF_PERICENTER": 280.3625, "MEAN_ANOMALY": 229.3026, "EPHEMERIS_TYPE": 0, "CLASSIFICATION_TYPE": "U", "NORAD_CAT_ID": 36106, "ELEMENT_SET_NO": 999, "REV_AT_EPOCH": 3942, "BSTAR": 0, "MEAN_MOTION_DOT": -1.6e-06, "MEAN_MOTION_DDOT": 0}, "tle": {"line1": "1 36106U 09067A   25352.92755321 -.00000160  00000+0  00000+0 0  9995", "line2": "2 36106   0.0179 357.1967 0002124 280.3625 229.3026  1.00272402 39428"}}, "geometry": {"type": "Point", "coordinates": [35.78414268616152, 0.029670594823607333]}}, {"type": "Feature", "properties": {"norad_id": 36131, "name": "DIRECTV 12", "group": "intelsat", "lat": -0.0004608626143350554, "lon": -152.11459641962654, "alt_km": 35787.88470955055, "timestamp": "2025-12-19T14:48:35.912177+00:00", "meta": {"OBJECT_NAME": "DIRECTV 12", "OBJECT_ID": "2009-075A", "EPOCH": "2025-12-18T20:43:10.822080", "MEAN_MOTION": 1.00271221, "ECCENTRICITY": 4.242e-05, "INCLINATION": 0.0364, "RA_OF_ASC_NODE": 131.9635, "ARG_OF_PERICENTER": 232.6466, "MEAN_ANOMALY": 291.1917, "EPHEMERIS_TYPE": 0, "CLASSIFICATION_TYPE": "U", "NORAD_CAT_ID": 36131, "ELEMENT_SET_NO": 999, "REV_AT_EPOCH": 4474, "BSTAR": 0, "MEAN_MOTION_DOT": -7.8e-07, "MEAN_MOTION_DDOT": 0}, "tle": {"line1": "1 36131U 09075A   25352.86331970 -.00000078  00000+0  00000+0 0  9993", "line2": "2 36131   0.0364 131.9635 0000424 232.6466 291.1917  1.00271221 44741"}}, "geometry": {"type": "Point", "coordinates": [-152.11459641962654, -0.0004608626143350554]}}, {"type": "Feature", "properties": {"norad_id": 36397, "name": "INTELSAT 16 (IS-16)", "group": "intelsat", "lat": -0.03404398903402437, "lon": -125.60115514599953, "alt_km": 35779.71530957218, "timestamp": "2025-12-19T14:48:35.912188+00:00", "meta": {"OBJECT_NAME": "INTELSAT 16 (IS-16)", "OBJECT_ID": "2010-006A", "EPOCH": "2025-12-19T06:15:04.684032", "MEAN_MOTION": 1.00272178, "ECCENTRICITY": 0.0001823, "INCLINATION": 0.0098, "RA_OF_ASC_NODE": 330.8842, "ARG_OF_PERICENTER": 299.0041, "MEAN_ANOMALY": 195.8014, "EPHEMERIS_TYPE": 0, "CLASSIFICATION_TYPE": "U", "NORAD_CAT_ID": 36397, "ELEMENT_SET_NO": 999, "REV_AT_EPOCH": 5785, "BSTAR": 0, "MEAN_MOTION_DOT": -2.2e-06, "MEAN_MOTION_DDOT": 0}, "tle": {"line1": "1 36397U 10006A   25353.26047088 -.00000220  00000+0  00000+0 0  9991", "line2": "2 36397   0.0098 330.8842 0001823 299.0041 195.8014  1.00272178 57855"}}, "geometry": {"type": "Point", "coordinates": [-125.60115514599953, -0.03404398903402437]}}, {"type": "Feature", "properties": {"norad_id": 37185, "name": "XM-5", "group": "intelsat", "lat": -0.065220608813633, "lon": -164.57283560448943, "alt_km": 35780.834481076694, "timestamp": "2025-12-19T14:48:35.912200+00:00", "meta": {"OBJECT_NAME": "XM-5", "OBJECT_ID": "2010-053A", "EPOCH": "2025-12-18T20:22:12.372384", "MEAN_MOTION": 1.00271564, "ECCENTRICITY": 0.00020077, "INCLINATION": 0.0627, "RA_OF_ASC_NODE": 271.9192, "ARG_OF_PERICENTER": 232.5831, "MEAN_ANOMALY": 133.5627, "EPHEMERIS_TYPE": 0, "CLASSIFICATION_TYPE": "U", "NORAD_CAT_ID": 37185, "ELEMENT_SET_NO": 999, "REV_AT_EPOCH": 5567, "BSTAR": 0, "MEAN_MOTION_DOT": 2e-08, "MEAN_MOTION_DDOT": 0}, "tle": {"line1": "1 37185U 10053A   25352.84875431  .00000002  00000+0  00000+0 0  9990", "line2": "2 37185   0.0627 271.9192 0002007 232.5831 133.5627  1.00271564 55671"}}, "geometry": {"type": "Point", "coordinates": [-164.57283560448943, -0.065220608813633]}}, {"type": "Feature", "properties": {"norad_id": 37238, "name": "INTELSAT 17 (IS-17)", "group": "intelsat", "lat": -0.00988981207532322, "lon": 16.606356915212405, "alt_km": 35786.04290433591, "timestamp": "2025-12-19T14:48:35.912212+00:00", "meta": {"OBJECT_NAME": "INTELSAT 17 (IS-17)", "OBJECT_ID": "2010-065B", "EPOCH": "2025-12-19T03:18:23.996736", "MEAN_MOTION": 1.00271239, "ECCENTRICITY": 0.00027488, "INCLINATION": 0.0258, "RA_OF_ASC_NODE": 64.0761, "ARG_OF_PERICENTER": 223.5698, "MEAN_ANOMALY": 275.9182, "EPHEMERIS_TYPE": 0, "CLASSIFICATION_TYPE": "U", "NORAD_CAT_ID": 37238, "ELEMENT_SET_NO": 999, "REV_AT_EPOCH": 5144, "BSTAR": 0, "MEAN_MOTION_DOT": 0, "MEAN_MOTION_DDOT": 0}, "tle": {"line1": "1 37238U 10065B   25353.13777774  .00000000  00000+0  00000+0 0  9994", "line2": "2 37238   0.0258  64.0761 0002748 223.5698 275.9182  1.00271239 51443"}}, "geometry": {"type": "Point", "coordinates": [16.606356915212405, -0.00988981207532322]}}, {"type": "Feature", "properties": {"norad_id": 37392, "name": "INTELSAT 28 (IS-28)", "group": "intelsat", "lat": -0.3498938925394612, "lon": -81.08391742926945, "alt_km": 35771.11877946094, "timestamp": "2025-12-19T14:48:35.912224+00:00", "meta": {"OBJECT_NAME": "INTELSAT 28 (IS-28)", "OBJECT_ID": "2011-016A", "EPOCH": "2025-12-19T06:15:51.996672", "MEAN_MOTION": 1.00270298, "ECCENTRICITY": 0.00036759, "INCLINATION": 1.3406, "RA_OF_ASC_NODE": 84.9867, "ARG_OF_PERICENTER": 186.8459, "MEAN_ANOMALY": 238.5581, "EPHEMERIS_TYPE": 0, "CLASSIFICATION_TYPE": "U", "NORAD_CAT_ID": 37392, "ELEMENT_SET_NO": 999, "REV_AT_EPOCH": 5148, "BSTAR": 0, "MEAN_MOTION_DOT": -2.01e-06, "MEAN_MOTION_DDOT": 0}, "tle": {"line1": "1 37392U 11016A   25353.26101848 -.00000201  00000+0  00000+0 0  9993", "line2": "2 37392   1.3406  84.9867 0003675 186.8459 238.5581  1.00270298 51483"}}, "geometry": {"type": "Point", "coordinates": [-81.08391742926945, -0.3498938925394612]}}]}